{"type": "FeatureCollection", "features": [ {"type": "Feature", "properties": {"norad_id": 66659, "name": "JACK K", "group": "last-30-days", "lat": -4.374963157473536, "lon": 83.24310299186288, "alt_km": 599.2503105508549, "timestamp": "2025-12-02T10:50:46.054081+00:00", "meta": {"OBJECT_NAME": "JACK K", "OBJECT_ID": "2025-274K", "EPOCH": "2025-12-01T17:56:02.624640", "MEAN_MOTION": 14.9270196, "ECCENTRICITY": 0.0012626, "INCLINATION": 97.7374, "RA_OF_ASC_NODE": 263.1465, "ARG_OF_PERICENTER": 321.0842, "MEAN_ANOMALY": 38.9468, "EPHEMERIS_TYPE": 0, "CLASSIFICATION_TYPE": "U", "NORAD_CAT_ID": 66659, "ELEMENT_SET_NO": 999, "REV_AT_EPOCH": 76, "BSTAR": 0.00036748, "MEAN_MOTION_DOT": 3.74e-05, "MEAN_MOTION_DDOT": 0}, "tle": {"line1": "1 66659U 25274K   25335.74725260  .00003740  00000+0  36748-3 0  9997", "line2": "2 66659  97.7374 263.1465 0012626 321.0842  38.9468 14.92701960   765"}}, "geometry": {"type": "Point", "coordinates": [83.24310299186288, -4.374963157473536]}}, {"type": "Feature", "properties": {"norad_id": 66660, "name": "K-HERO", "group": "last-30-days", "lat": -7.436818192883529, "lon": 82.8238489758049, "alt_km": 599.1473000896549, "timestamp": "2025-12-02T10:50:46.054090+00:00", "meta": {"OBJECT_NAME": "K-HERO", "OBJECT_ID": "2025-274L", "EPOCH": "2025-12-01T17:55:18.874272", "MEAN_MOTION": 14.9285317, "ECCENTRICITY": 0.0013251, "INCLINATION": 97.7378, "RA_OF_ASC_NODE": 263.1475, "ARG_OF_PERICENTER": 321.6444, "MEAN_ANOMALY": 38.3832, "EPHEMERIS_TYPE": 0, "CLASSIFICATION_TYPE": "U", "NORAD_CAT_ID": 66660, "ELEMENT_SET_NO": 999, "REV_AT_EPOCH": 76, "BSTAR": 0.00040358, "MEAN_MOTION_DOT": 4.13e-05, "MEAN_MOTION_DDOT": 0}, "tle": {"line1": "1 66660U 25274L   25335.74674623  .00004130  00000+0  40358-3 0  9991", "line2": "2 66660  97.7378 263.1475 0013251 321.6444  38.3832 14.92853170   761"}}, "geometry": {"type": "Point", "coordinates": [82.8238489758049, -7.436818192883529]}}, {"type": "Feature", "properties": {"norad_id": 66661, "name": "SNUGLITE-III", "group": "last-30-days", "lat": -10.62000501213902, "lon": 82.38098192776845, "alt_km": 599.0273427535058, "timestamp": "2025-12-02T10:50:46.054102+00:00", "meta": {"OBJECT_NAME": "SNUGLITE-III", "OBJECT_ID": "2025-274M", "EPOCH": "2025-12-01T17:54:33.114240", "MEAN_MOTION": 14.93004804, "ECCENTRICITY": 0.0013939, "INCLINATION": 97.7376, "RA_OF_ASC_NODE": 263.1479, "ARG_OF_PERICENTER": 322.3155, "MEAN_ANOMALY": 37.7086, "EPHEMERIS_TYPE": 0, "CLASSIFICATION_TYPE": "U", "NORAD_CAT_ID": 66661, "ELEMENT_SET_NO": 999, "REV_AT_EPOCH": 76, "BSTAR": 0.00031193, "MEAN_MOTION_DOT": 3.192e-05, "MEAN_MOTION_DDOT": 0}, "tle": {"line1": "1 66661U 25274M   25335.74621660  .00003192  00000+0  31193-3 0  9999", "line2": "2 66661  97.7376 263.1479 0013939 322.3155  37.7086 14.93004804   761"}}, "geometry": {"type": "Point", "coordinates": [82.38098192776845, -10.62000501213902]}}, {"type": "Feature", "properties": {"norad_id": 66662, "name": "2025-274N", "group": "last-30-days", "lat": -12.034031809911069, "lon": 82.18151284015808, "alt_km": 598.8708266370077, "timestamp": "2025-12-02T10:50:46.054112+00:00", "meta": {"OBJECT_NAME": "2025-274N", "OBJECT_ID": "2025-274N", "EPOCH": "2025-12-01T17:54:12.595968", "MEAN_MOTION": 14.93069825, "ECCENTRICITY": 0.001433, "INCLINATION": 97.7377, "RA_OF_ASC_NODE": 263.1482, "ARG_OF_PERICENTER": 321.6887, "MEAN_ANOMALY": 38.3313, "EPHEMERIS_TYPE": 0, "CLASSIFICATION_TYPE": "U", "NORAD_CAT_ID": 66662, "ELEMENT_SET_NO": 999, "REV_AT_EPOCH": 76, "BSTAR": 0.00022873, "MEAN_MOTION_DOT": 2.329e-05, "MEAN_MOTION_DDOT": 0}, "tle": {"line1": "1 66662U 25274N   25335.74597912  .00002329  00000+0  22873-3 0  9998", "line2": "2 66662  97.7377 263.1482 0014330 321.6887  38.3313 14.93069825   761"}}, "geometry": {"type": "Point", "coordinates": [82.18151284015808, -12.034031809911069]}}, {"type": "Feature", "properties": {"norad_id": 66663, "name": "KSLV-II R/B", "group": "last-30-days", "lat": -76.00873713089696, "lon": -63.02058608204144, "alt_km": 572.7548139154596, "timestamp": "2025-12-02T10:50:46.054122+00:00", "meta": {"OBJECT_NAME": "KSLV-II R/B", "OBJECT_ID": "2025-274P", "EPOCH": "2025-12-01T19:09:11.937312", "MEAN_MOTION": 14.97208303, "ECCENTRICITY": 0.0044233, "INCLINATION": 97.7405, "RA_OF_ASC_NODE": 263.2462, "ARG_OF_PERICENTER": 354.9322, "MEAN_ANOMALY": 5.1446, "EPHEMERIS_TYPE": 0, "CLASSIFICATION_TYPE": "U", "NORAD_CAT_ID": 66663, "ELEMENT_SET_NO": 999, "REV_AT_EPOCH": 77, "BSTAR": -0.00030154, "MEAN_MOTION_DOT": -3.618e-05, "MEAN_MOTION_DDOT": 0}, "tle": {"line1": "1 66663U 25274P   25335.79805483 -.00003618  00000+0 -30154-3 0  9994", "line2": "2 66663  97.7405 263.2462 0044233 354.9322   5.1446 14.97208303   771"}}, "geometry": {"type": "Point", "coordinates": [-63.02058608204144, -76.00873713089696]}}, {"type": "Feature", "properties": {"norad_id": 66664, "name": "SOYUZ-MS 28", "group": "last-30-days", "lat": -21.21264738015191, "lon": 31.318538309803053, "alt_km": 419.5514549365935, "timestamp": "2025-12-02T10:50:46.054134+00:00", "meta": {"OBJECT_NAME": "SOYUZ-MS 28", "OBJECT_ID": "2025-275A", "EPOCH": "2025-12-01T21:34:10.812000", "MEAN_MOTION": 15.49234272, "ECCENTRICITY": 0.0003628, "INCLINATION": 51.6307, "RA_OF_ASC_NODE": 196.1486, "ARG_OF_PERICENTER": 192.4733, "MEAN_ANOMALY": 167.6166, "EPHEMERIS_TYPE": 0, "CLASSIFICATION_TYPE": "U", "NORAD_CAT_ID": 66664, "ELEMENT_SET_NO": 999, "REV_AT_EPOCH": 76, "BSTAR": 0.0001829, "MEAN_MOTION_DOT": 9.722e-05, "MEAN_MOTION_DDOT": 0}, "tle": {"line1": "1 66664U 25275A   25335.89873625  .00009722  00000+0  18290-3 0  9997", "line2": "2 66664  51.6307 196.1486 0003628 192.4733 167.6166 15.49234272   760"}}, "geometry": {"type": "Point", "coordinates": [31.318538309803053, -21.21264738015191]}}]}